[{"OBJECT_NAME":"KINEIS-4A","OBJECT_ID":"2025-056D","EPOCH":"2026-03-09T22:34:56.006400","MEAN_MOTION":14.72324444,"ECCENTRICITY":0.00017943,"INCLINATION":97.9939,"RA_OF_ASC_NODE":195.3129,"ARG_OF_PERICENTER":234.6106,"MEAN_ANOMALY":125.4934,"EPHEMERIS_TYPE":0,"CLASSIFICATION_TYPE":"U","NORAD_CAT_ID":63303,"ELEMENT_SET_NO":999,"REV_AT_EPOCH":5252,"BSTAR":0.00048236611,"MEAN_MOTION_DOT":3.002e-5,"MEAN_MOTION_DDOT":0},{"OBJECT_NAME":"CZ-6A DEB","OBJECT_ID":"2022-151KY","EPOCH":"2026-03-09T16:19:48.774432","MEAN_MOTION":14.74179774,"ECCENTRICITY":0.00332687,"INCLINATION":98.5942,"RA_OF_ASC_NODE":119.8006,"ARG_OF_PERICENTER":214.3499,"MEAN_ANOMALY":145.5556,"EPHEMERIS_TYPE":0,"CLASSIFICATION_TYPE":"U","NORAD_CAT_ID":54548,"ELEMENT_SET_NO":999,"REV_AT_EPOCH":17539,"BSTAR":0.0029849461,"MEAN_MOTION_DOT":0.00019871,"MEAN_MOTION_DDOT":0}]
